{
  "type": "FeatureCollection",
  "features": [
    {
      "type": "Feature",
      "properties": {
        "norad_id": 30737,
        "name": "FENGYUN 1C DEB",
        "group": "fengyun-1c-debris",
        "lat": 25.252620137866586,
        "lon": -37.95902701686484,
        "alt_km": 837.5018437463414,
        "timestamp": "2025-12-09T16:56:36.853148+00:00",
        "meta_object_name": "FENGYUN 1C DEB",
        "meta_object_id": "1999-025ASX",
        "meta_epoch": "2025-12-09T10:46:44.255712",
        "meta_mean_motion": 14.18247734,
        "meta_eccentricity": 0.0023946,
        "meta_inclination": 98.5791,
        "meta_ra_of_asc_node": 325.8759,
        "meta_arg_of_pericenter": 140.6196,
        "meta_mean_anomaly": 14.59,
        "meta_ephemeris_type": 0,
        "meta_classification_type": "U",
        "meta_norad_cat_id": 30737,
        "meta_element_set_no": 999,
        "meta_rev_at_epoch": 96986,
        "meta_bstar": 0.00051848,
        "meta_mean_motion_dot": 1.028e-05,
        "meta_mean_motion_ddot": 0,
        "tle_line1": "1 30737U 99025ASX 25343.44912333  .00001028  00000+0  51848-3 0  9990",
        "tle_line2": "2 30737  98.5791 325.8759 0023946 140.6196  14.5900 14.18247734969869"
      },
      "geometry": {
        "type": "Point",
        "coordinates": [
          -37.95902701686484,
          25.252620137866586
        ]
      }
    },
    {
      "type": "Feature",
      "properties": {
        "norad_id": 30739,
        "name": "FENGYUN 1C DEB",
        "group": "fengyun-1c-debris",
        "lat": 2.645190486616489,
        "lon": 151.32273238437128,
        "alt_km": 906.9973781015478,
        "timestamp": "2025-12-09T16:56:36.853158+00:00",
        "meta_object_name": "FENGYUN 1C DEB",
        "meta_object_id": "1999-025ASZ",
        "meta_epoch": "2025-12-08T21:44:59.505792",
        "meta_mean_motion": 14.14941303,
        "meta_eccentricity": 0.0100692,
        "meta_inclination": 98.6917,
        "meta_ra_of_asc_node": 330.1388,
        "meta_arg_of_pericenter": 328.1937,
        "meta_mean_anomaly": 98.205,
        "meta_ephemeris_type": 0,
        "meta_classification_type": "U",
        "meta_norad_cat_id": 30739,
        "meta_element_set_no": 999,
        "meta_rev_at_epoch": 96809,
        "meta_bstar": 0.0006939,
        "meta_mean_motion_dot": 1.365e-05,
        "meta_mean_motion_ddot": 0,
        "tle_line1": "1 30739U 99025ASZ 25342.90624428  .00001365  00000+0  69390-3 0  9992",
        "tle_line2": "2 30739  98.6917 330.1388 0100692 328.1937  98.2050 14.14941303968097"
      },
      "geometry": {
        "type": "Point",
        "coordinates": [
          151.32273238437128,
          2.645190486616489
        ]
      }
    },
    {
      "type": "Feature",
      "properties": {
        "norad_id": 30740,
        "name": "FENGYUN 1C DEB",
        "group": "fengyun-1c-debris",
        "lat": 27.18836251373705,
        "lon": -86.78937886201913,
        "alt_km": 695.7517575299325,
        "timestamp": "2025-12-09T16:56:36.853168+00:00",
        "meta_object_name": "FENGYUN 1C DEB",
        "meta_object_id": "1999-025ATA",
        "meta_epoch": "2025-12-07T17:55:50.839680",
        "meta_mean_motion": 14.51761735,
        "meta_eccentricity": 0.00324355,
        "meta_inclination": 98.6902,
        "meta_ra_of_asc_node": 86.6793,
        "meta_arg_of_pericenter": 150.5496,
        "meta_mean_anomaly": 209.7534,
        "meta_ephemeris_type": 0,
        "meta_classification_type": "U",
        "meta_norad_cat_id": 30740,
        "meta_element_set_no": 999,
        "meta_rev_at_epoch": 97575,
        "meta_bstar": 0.0045816445,
        "meta_mean_motion_dot": 0.00018541,
        "meta_mean_motion_ddot": 0,
        "tle_line1": "1 30740U 99025ATA 25341.74711620  .00018541  00000+0  45816-2 0  9996",
        "tle_line2": "2 30740  98.6902  86.6793 0032435 150.5496 209.7534 14.51761735975759"
      },
      "geometry": {
        "type": "Point",
        "coordinates": [
          -86.78937886201913,
          27.18836251373705
        ]
      }
    },
    {
      "type": "Feature",
      "properties": {
        "norad_id": 30741,
        "name": "FENGYUN 1C DEB",
        "group": "fengyun-1c-debris",
        "lat": 79.85121051967214,
        "lon": -65.51527639443034,
        "alt_km": 837.0505765107182,
        "timestamp": "2025-12-09T16:56:36.853179+00:00",
        "meta_object_name": "FENGYUN 1C DEB",
        "meta_object_id": "1999-025ATB",
        "meta_epoch": "2025-12-09T12:10:00.804864",
        "meta_mean_motion": 14.13231776,
        "meta_eccentricity": 0.0006969,
        "meta_inclination": 98.6799,
        "meta_ra_of_asc_node": 352.8724,
        "meta_arg_of_pericenter": 125.0205,
        "meta_mean_anomaly": 27.7538,
        "meta_ephemeris_type": 0,
        "meta_classification_type": "U",
        "meta_norad_cat_id": 30741,
        "meta_element_set_no": 999,
        "meta_rev_at_epoch": 96773,
        "meta_bstar": 0.00025461,
        "meta_mean_motion_dot": 4.34e-06,
        "meta_mean_motion_ddot": 0,
        "tle_line1": "1 30741U 99025ATB 25343.50695376  .00000434  00000+0  25461-3 0  9999",
        "tle_line2": "2 30741  98.6799 352.8724 0006969 125.0205  27.7538 14.13231776967730"
      },
      "geometry": {
        "type": "Point",
        "coordinates": [
          -65.51527639443034,
          79.85121051967214
        ]
      }
    },
    {
      "type": "Feature",
      "properties": {
        "norad_id": 30742,
        "name": "FENGYUN 1C DEB",
        "group": "fengyun-1c-debris",
        "lat": 64.50930659460649,
        "lon": -132.70554986155864,
        "alt_km": 878.2106764636483,
        "timestamp": "2025-12-09T16:56:36.853189+00:00",
        "meta_object_name": "FENGYUN 1C DEB",
        "meta_object_id": "1999-025ATC",
        "meta_epoch": "2025-12-09T02:53:29.478048",
        "meta_mean_motion": 14.10339931,
        "meta_eccentricity": 0.00708735,
        "meta_inclination": 98.8683,
        "meta_ra_of_asc_node": 27.6021,
        "meta_arg_of_pericenter": 236.858,
        "meta_mean_anomaly": 146.7117,
        "meta_ephemeris_type": 0,
        "meta_classification_type": "U",
        "meta_norad_cat_id": 30742,
        "meta_element_set_no": 999,
        "meta_rev_at_epoch": 95991,
        "meta_bstar": 0.0019534918,
        "meta_mean_motion_dot": 3.507e-05,
        "meta_mean_motion_ddot": 0,
        "tle_line1": "1 30742U 99025ATC 25343.12048007  .00003507  00000+0  19535-2 0  9999",
        "tle_line2": "2 30742  98.8683  27.6021 0070873 236.8580 146.7117 14.10339931959919"
      },
      "geometry": {
        "type": "Point",
        "coordinates": [
          -132.70554986155864,
          64.50930659460649
        ]
      }
    },
    {
      "type": "Feature",
      "properties": {
        "norad_id": 30744,
        "name": "FENGYUN 1C DEB",
        "group": "fengyun-1c-debris",
        "lat": 75.667902637832,
        "lon": -13.514742143821039,
        "alt_km": 600.8335691852053,
        "timestamp": "2025-12-09T16:56:36.853199+00:00",
        "meta_object_name": "FENGYUN 1C DEB",
        "meta_object_id": "1999-025ATE",
        "meta_epoch": "2025-12-08T21:42:39.585312",
        "meta_mean_motion": 14.88955563,
        "meta_eccentricity": 0.0010201,
        "meta_inclination": 98.7316,
        "meta_ra_of_asc_node": 128.6218,
        "meta_arg_of_pericenter": 283.7413,
        "meta_mean_anomaly": 204.6199,
        "meta_ephemeris_type": 0,
        "meta_classification_type": "U",
        "meta_norad_cat_id": 30744,
        "meta_element_set_no": 999,
        "meta_rev_at_epoch": 98031,
        "meta_bstar": 0.0060839,
        "meta_mean_motion_dot": 0.00057617,
        "meta_mean_motion_ddot": 0,
        "tle_line1": "1 30744U 99025ATE 25342.90462483  .00057617  00000+0  60839-2 0  9998",
        "tle_line2": "2 30744  98.7316 128.6218 0010201 283.7413 204.6199 14.88955563980310"
      },
      "geometry": {
        "type": "Point",
        "coordinates": [
          -13.514742143821039,
          75.667902637832
        ]
      }
    },
    {
      "type": "Feature",
      "properties": {
        "norad_id": 30746,
        "name": "FENGYUN 1C DEB",
        "group": "fengyun-1c-debris",
        "lat": -78.36134070779457,
        "lon": -66.56568117316135,
        "alt_km": 792.9271619210922,
        "timestamp": "2025-12-09T16:56:36.853212+00:00",
        "meta_object_name": "FENGYUN 1C DEB",
        "meta_object_id": "1999-025ATG",
        "meta_epoch": "2025-12-09T10:48:20.873376",
        "meta_mean_motion": 14.27504622,
        "meta_eccentricity": 0.0046283,
        "meta_inclination": 99.0575,
        "meta_ra_of_asc_node": 163.9243,
        "meta_arg_of_pericenter": 327.8333,
        "meta_mean_anomaly": 61.7782,
        "meta_ephemeris_type": 0,
        "meta_classification_type": "U",
        "meta_norad_cat_id": 30746,
        "meta_element_set_no": 999,
        "meta_rev_at_epoch": 97399,
        "meta_bstar": 0.00077955,
        "meta_mean_motion_dot": 1.89e-05,
        "meta_mean_motion_ddot": 0,
        "tle_line1": "1 30746U 99025ATG 25343.45024159  .00001890  00000+0  77955-3 0  9995",
        "tle_line2": "2 30746  99.0575 163.9243 0046283 327.8333  61.7782 14.27504622973998"
      },
      "geometry": {
        "type": "Point",
        "coordinates": [
          -66.56568117316135,
          -78.36134070779457
        ]
      }
    }
  ]
}